{
    "links": {
        "self": "http://www.neowsapp.com/rest/v1/neo/3874051?api_key=iIulBulltgU6a56xZRHN4H3l9WmuAYTsLGpBGhQ2"
    },
    "id": "3874051",
    "neo_reference_id": "3874051",
    "name": "(2019 SU10)",
    "designation": "2019 SU10",
    "nasa_jpl_url": "http://ssd.jpl.nasa.gov/sbdb.cgi?sstr=3874051",
    "absolute_magnitude_h": 27.2,
    "estimated_diameter": {
        "kilometers": {
            "estimated_diameter_min": 0.0096506147,
            "estimated_diameter_max": 0.0215794305
        },
        "meters": {
            "estimated_diameter_min": 9.6506146958,
            "estimated_diameter_max": 21.5794304844
        },
        "miles": {
            "estimated_diameter_min": 0.0059966121,
            "estimated_diameter_max": 0.0134088323
        },
        "feet": {
            "estimated_diameter_min": 31.6621227185,
            "estimated_diameter_max": 70.7986587106
        }
    },
    "is_potentially_hazardous_asteroid": false,
    "close_approach_data": [
        {
            "close_approach_date": "2019-09-26",
            "close_approach_date_full": "2019-Sep-26 02:35",
            "epoch_date_close_approach": 1569465300000,
            "relative_velocity": {
                "kilometers_per_second": "12.7120382077",
                "kilometers_per_hour": "45763.3375475634",
                "miles_per_hour": "28435.5582667068"
            },
            "miss_distance": {
                "astronomical": "0.0048230172",
                "lunar": "1.8761536908",
                "kilometers": "721513.100093364",
                "miles": "448327.4511778632"
            },
            "orbiting_body": "Earth"
        },
        {
            "close_approach_date": "2019-09-26",
            "close_approach_date_full": "2019-Sep-26 05:11",
            "epoch_date_close_approach": 1569474660000,
            "relative_velocity": {
                "kilometers_per_second": "13.0971191501",
                "kilometers_per_hour": "47149.6289403312",
                "miles_per_hour": "29296.9458268408"
            },
            "miss_distance": {
                "astronomical": "0.0067009571",
                "lunar": "2.6066723119",
                "kilometers": "1002448.909121377",
                "miles": "622892.8682019226"
            },
            "orbiting_body": "Moon"
        }
    ],
    "orbital_data": {
        "orbit_id": "1",
        "orbit_determination_date": "2019-10-05 06:19:53",
        "first_observation_date": "2019-09-25",
        "last_observation_date": "2019-09-26",
        "data_arc_in_days": 1,
        "observations_used": 24,
        "orbit_uncertainty": "8",
        "minimum_orbit_intersection": ".00479298",
        "jupiter_tisserand_invariant": "3.073",
        "epoch_osculation": "2458752.5",
        "eccentricity": ".6164908545783865",
        "semi_major_axis": "2.593969897586899",
        "inclination": "16.40703962710981",
        "ascending_node_longitude": "182.2745942156871",
        "orbital_period": "1525.969399413459",
        "perihelion_distance": ".9948111786729419",
        "perihelion_argument": "194.9862701957338",
        "aphelion_distance": "4.193128616500856",
        "perihelion_time": "2458764.396184653049",
        "mean_anomaly": "357.1935043541871",
        "mean_motion": ".2359156088833591",
        "equinox": "J2000",
        "orbit_class": {
            "orbit_class_type": "APO",
            "orbit_class_description": "Near-Earth asteroid orbits which cross the Earth’s orbit similar to that of 1862 Apollo",
            "orbit_class_range": "a (semi-major axis) > 1.0 AU; q (perihelion) < 1.017 AU"
        }
    },
    "is_sentry_object": false
}